{
  "version": 0.6,
  "generator": "Overpass API 0.7.56.7 b85c4387",
  "osm3s": {
    "copyright": "The data included in this document is from www.openstreetmap.org. The data is made available under ODbL."
  },
  "elements": [

{
  "type": "node",
  "id": 296608120,
  "lat": 49.1969623,
  "lon": 16.6085328,
  "tags": {
    "addr:city": "Brno",
    "addr:conscriptionnumber": "128",
    "addr:housenumber": "128/6",
    "addr:postcode": "60200",
    "addr:street": "Jakubské náměstí",
    "addr:streetnumber": "6",
    "amenity": "restaurant",
    "cuisine": "international",
    "diet:vegetarian": "yes",
    "internet_access": "wlan",
    "name": "Jakoby",
    "opening_hours": "Mo-Th 11:00-24:00; Fr 11:00-01:00, Sa 12:00-01:00, Su 12:00-23:00",
    "outdoor_seating": "yes",
    "phone": "+420 602 525 629",
    "source:addr": "uir_adr",
    "source:position": "cuzk:km",
    "uir_adr:ADRESA_KOD": "19094841",
    "website": "http://www.restauracejakoby.cz/",
    "wheelchair": "no"
  }
},
{
  "type": "node",
  "id": 296620839,
  "lat": 49.1995359,
  "lon": 16.6024906,
  "tags": {
    "addr:city": "Brno",
    "addr:conscriptionnumber": "461",
    "addr:housenumber": "461/14",
    "addr:postcode": "60200",
    "addr:street": "Veveří",
    "addr:streetnumber": "14",
    "amenity": "restaurant",
    "diet:vegetarian": "yes",
    "name": "Bistro Franz",
    "opening_hours": "Mo-Th 08:00-23:00; Fr 08:00-24:00; Sa 10:00-24:00; Su 10:00-21:00",
    "phone": "+420 720 113 502",
    "source:addr": "uir_adr",
    "uir_adr:ADRESA_KOD": "19170556",
    "website": "http://www.bistrofranz.cz/",
    "wheelchair": "no"
  }
},
{
  "type": "node",
  "id": 377071741,
  "lat": 49.1952897,
  "lon": 16.6447628,
  "tags": {
    "addr:city": "Brno",
    "addr:housenumber": "3216/78",
    "addr:postcode": "61500",
    "addr:street": "Táborská",
    "amenity": "restaurant",
    "cuisine": "pizza;burger",
    "delivery": "yes",
    "diet:vegan": "no",
    "diet:vegetarian": "yes",
    "name": "Don Antonio Pizza & Burger",
    "opening_hours": "Mo-Su 10:00-23:00",
    "phone": "+420 702 33 00 33",
    "takeaway": "only",
    "website": "https://www.donantonio.cz"
  }
},
{
  "type": "node",
  "id": 387773428,
  "lat": 49.1935414,
  "lon": 16.6395473,
  "tags": {
    "addr:city": "Brno",
    "addr:housenumber": "456/157",
    "addr:postcode": "63600",
    "addr:street": "Táborská",
    "amenity": "restaurant",
    "contact:email": "info@namaskar.cz",
    "contact:facebook": "https://www.facebook.com/Namaskarbrno",
    "contact:website": "https://www.namaskar.cz",
    "cuisine": "indian",
    "diet:vegetarian": "yes",
    "name": "Namaskar",
    "opening_hours": "Mo-Th 10:00-22:00; Fr-Sa 10:30-23:00; Su 11:30-22:00"
  }
},
{
  "type": "node",
  "id": 452326805,
  "lat": 49.2091127,
  "lon": 16.6009335,
  "tags": {
    "addr:city": "Brno",
    "addr:postcode": "60200",
    "amenity": "restaurant",
    "cuisine": "regional",
    "diet:vegetarian": "yes",
    "name": "U Dřeváka",
    "opening_hours": "Mo-Th 11:00-00:00; Fr 11:00-01:00; Sa 11:30-01:00; Su 11:30-00:00",
    "website": "https://www.udrevaka.cz/"
  }
},
{
  "type": "node",
  "id": 582498699,
  "lat": 49.2103992,
  "lon": 16.6014543,
  "tags": {
    "addr:city": "Brno",
    "addr:housenumber": "6",
    "addr:postcode": "60200",
    "addr:street": "Hrnčířská",
    "amenity": "restaurant",
    "capacity": "130",
    "cuisine": "italian;pasta;pizza",
    "diet:vegan": "yes",
    "diet:vegetarian": "yes",
    "email": "info@pizzaalcapone.cz",
    "name": "Pizzeria Al Capone",
    "opening_hours": "Mo-Su 11:00-23:30",
    "outdoor_seating": "yes",
    "phone": "+420 541 210 555",
    "website": "https://www.pizzaalcapone.cz/brno/",
    "wheelchair": "yes"
  }
},
{
  "type": "node",
  "id": 584890017,
  "lat": 49.1915032,
  "lon": 16.6105850,
  "tags": {
    "addr:city": "Brno",
    "addr:housenumber": "32",
    "addr:postcode": "60200",
    "addr:street": "Masarykova",
    "amenity": "fast_food",
    "brand": "McDonald's",
    "brand:wikidata": "Q38076",
    "brand:wikipedia": "en:McDonald's",
    "cuisine": "burger",
    "diet:vegetarian": "yes",
    "internet_access": "wlan",
    "name": "McDonald's",
    "opening_hours": "Mo-Fr 06:00-24:00; Sa 00:00-02:00,06:00-24:00; Su 00:00-02:00,08:00-24:00",
    "smoking": "no",
    "takeaway": "yes",
    "wheelchair": "yes"
  }
},
{
  "type": "node",
  "id": 603039641,
  "lat": 49.2003917,
  "lon": 16.6025416,
  "tags": {
    "addr:city": "Brno",
    "addr:housenumber": "10",
    "addr:postcode": "60200",
    "addr:street": "Slovákova",
    "amenity": "restaurant",
    "delivery": "yes",
    "diet:vegan": "yes",
    "diet:vegetarian": "yes",
    "internet_access": "wlan",
    "name": "Vegalité",
    "opening_hours": "Mo-Fr 11:00-01:00, Sa 16:00-01:00; PH off",
    "smoking": "no",
    "takeaway": "yes",
    "website": "http://www.vegalite.cz/",
    "wheelchair": "no",
    "wifi": "free"
  }
},
{
  "type": "node",
  "id": 613526571,
  "lat": 49.2033888,
  "lon": 16.5996509,
  "tags": {
    "addr:city": "Brno",
    "addr:housenumber": "53",
    "addr:postcode": "60200",
    "addr:street": "Kounicova",
    "amenity": "restaurant",
    "contact:email": "info@lastrada-brno.cz",
    "contact:phone": "+420 549 240005",
    "contact:website": "https://lastrada-brno.cz",
    "cuisine": "italian",
    "diet:vegan": "yes",
    "diet:vegetarian": "yes",
    "internet_access": "wlan",
    "name": "La Strada",
    "opening_hours": "Su-Th 11:00-23:00; Fr-Sa 11:00-00:00",
    "smoking": "separated",
    "source": "survey",
    "wheelchair": "no"
  }
},
{
  "type": "node",
  "id": 636090240,
  "lat": 49.1947358,
  "lon": 16.6079220,
  "tags": {
    "addr:city": "Brno",
    "addr:housenumber": "19",
    "addr:postcode": "60200",
    "addr:street": "náměstí Svobody",
    "amenity": "fast_food",
    "brand": "McDonald's",
    "brand:wikidata": "Q38076",
    "brand:wikipedia": "en:McDonald's",
    "cuisine": "burger",
    "diet:vegetarian": "yes",
    "name": "McDonald's",
    "opening_hours": "Mo-Th 07:00-01:00, Fr-Sa 07:00-03:00, Su 07:00-01:00",
    "takeaway": "yes",
    "wheelchair": "yes"
  }
},
{
  "type": "node",
  "id": 707989273,
  "lat": 49.1985219,
  "lon": 16.6007629,
  "tags": {
    "addr:city": "Brno",
    "addr:housenumber": "11",
    "addr:postcode": "60200",
    "addr:street": "Jaselská",
    "amenity": "restaurant",
    "diet:gluten_free": "yes",
    "diet:vegan": "yes",
    "diet:vegetarian": "yes",
    "email": "restaurace@zzbrno.cz",
    "name": "Zdravý Život",
    "opening_hours": "Mo-Fr 08:00-18:00",
    "phone": "+420 549 211 081",
    "website": "http://www.zzbrno.cz/"
  }
},
{
  "type": "node",
  "id": 1323483185,
  "lat": 49.1940996,
  "lon": 16.6126594,
  "tags": {
    "addr:city": "Brno",
    "addr:housenumber": "26",
    "addr:postcode": "60200",
    "addr:street": "Orlí",
    "amenity": "restaurant",
    "diet:vegan": "yes",
    "diet:vegetarian": "yes",
    "name": "Rebio",
    "opening_hours": "Mo-Fr 08:00-19:00; Sa 10:00-15:00",
    "smoking": "no",
    "website": "http://www.rebio.cz/",
    "wheelchair": "yes"
  }
},
{
  "type": "node",
  "id": 1385613648,
  "lat": 49.1996298,
  "lon": 16.5980485,
  "tags": {
    "addr:city": "Brno",
    "addr:housenumber": "10",
    "addr:postcode": "60200",
    "addr:street": "Obilní trh",
    "amenity": "restaurant",
    "cuisine": "regional",
    "diet:vegan": "no",
    "diet:vegetarian": "yes",
    "internet_access": "wlan",
    "name": "Pivnice U Čápa",
    "opening_hours": "Mo-Su 11:00-24:00",
    "outdoor_seating": "yes",
    "phone": "+420 541 210 189",
    "smoking": "isolated",
    "takeaway": "no",
    "wheelchair": "no"
  }
},
{
  "type": "node",
  "id": 1391851211,
  "lat": 49.1900646,
  "lon": 16.6105727,
  "tags": {
    "amenity": "fast_food",
    "diet:vegetarian": "yes",
    "name": "Alen Food",
    "wheelchair": "yes"
  }
},
{
  "type": "node",
  "id": 1486367772,
  "lat": 49.1976130,
  "lon": 16.6050497,
  "tags": {
    "amenity": "cafe",
    "diet:vegan": "yes",
    "diet:vegetarian": "yes",
    "internet_access": "no",
    "name": "Kofi Kofi",
    "opening_hours": "Mo-Fr 06:00-20:30; Sa 09:00-17:00",
    "outdoor_seating": "no",
    "website": "http://www.kofikofi.cz/",
    "wheelchair": "yes"
  }
},
{
  "type": "node",
  "id": 1494789738,
  "lat": 49.1971831,
  "lon": 16.6012107,
  "tags": {
    "addr:city": "Brno",
    "addr:housenumber": "14",
    "addr:postcode": "60200",
    "addr:street": "Marešova",
    "amenity": "restaurant",
    "check_date:opening_hours": "2020-10-30",
    "cuisine": "asian",
    "diet:vegan": "yes",
    "diet:vegetarian": "yes",
    "name": "Zlatá miska",
    "opening_hours": "Mo-Sa 11:00-22:00; Su 11:00-21:00",
    "wheelchair": "no"
  }
},
{
  "type": "node",
  "id": 1512894164,
  "lat": 49.2245839,
  "lon": 16.5804912,
  "tags": {
    "addr:city": "Brno",
    "addr:housenumber": "95",
    "addr:postcode": "61200",
    "addr:street": "Purkyňova",
    "amenity": "fast_food",
    "cuisine": "burger",
    "diet:vegetarian": "yes",
    "internet_access": "no",
    "name": "Original Hotdog",
    "opening_hours": "Mo 07:00-23:45; Tu-Th 00:00-23:45; Fr 00:00-15:00",
    "wheelchair": "limited"
  }
},
{
  "type": "node",
  "id": 1514441113,
  "lat": 49.2014417,
  "lon": 16.6105621,
  "tags": {
    "addr:city": "Brno",
    "addr:housenumber": "13",
    "addr:postcode": "60200",
    "addr:street": "třída Kpt. Jaroše",
    "amenity": "restaurant",
    "cuisine": "indian",
    "diet:vegan": "limited",
    "diet:vegetarian": "yes",
    "name": "India Thali",
    "opening_hours": "Mo-Fr 11:00-15:00,17:00-22:00; Sa 17:00-22:00",
    "outdoor_seating": "yes",
    "wheelchair": "no"
  }
},
{
  "type": "node",
  "id": 1526309789,
  "lat": 49.2119821,
  "lon": 16.5784675,
  "tags": {
    "addr:city": "Brno",
    "addr:housenumber": "5",
    "addr:postcode": "61600",
    "addr:street": "Burianovo náměstí",
    "amenity": "restaurant",
    "diet:vegetarian": "yes",
    "name": "Restaurace Za Kapličkou",
    "opening_hours": "Mo-Sa 11:00-23:00; Su 11:00-22:00",
    "wheelchair": "no"
  }
},
{
  "type": "node",
  "id": 1528351545,
  "lat": 49.1971969,
  "lon": 16.6051919,
  "tags": {
    "addr:city": "Brno",
    "addr:housenumber": "31",
    "addr:postcode": "60200",
    "addr:street": "Česká",
    "amenity": "cafe",
    "diet:vegetarian": "yes",
    "name": "Fryends Cafe",
    "wheelchair": "no"
  }
},
{
  "type": "node",
  "id": 1528351547,
  "lat": 49.1972704,
  "lon": 16.6051337,
  "tags": {
    "amenity": "fast_food",
    "diet:vegan": "only",
    "diet:vegetarian": "yes",
    "name": "Fryends",
    "opening_hours": "Mo-Sa 11:00-20:00; Fr 11:00-24:00",
    "wheelchair": "yes"
  }
},
{
  "type": "node",
  "id": 1611767989,
  "lat": 49.2244409,
  "lon": 16.5902086,
  "tags": {
    "addr:city": "Brno",
    "addr:housenumber": "2",
    "addr:postcode": "61200",
    "addr:street": "Tyršova",
    "amenity": "restaurant",
    "cuisine": "indian;nepalese",
    "diet:vegetarian": "yes",
    "internet_access": "wlan",
    "name": "Nepal",
    "opening_hours": "Mo-Fr 11:00-22:00; Sa 12:00-22:00; Su off",
    "phone": "+420 774 687 219",
    "smoking": "no",
    "website": "http://nepalbrno.cz/",
    "wheelchair": "no"
  }
},
{
  "type": "node",
  "id": 1611767993,
  "lat": 49.2213892,
  "lon": 16.5855453,
  "tags": {
    "amenity": "fast_food",
    "cuisine": "kebab",
    "diet:vegetarian": "yes",
    "name": "Roj Kebab",
    "opening_hours": "Mo,Tu,Th 10:00-23:00; We,Fr,Sa 10:00-24:00; Su 11:00-22:00",
    "payment:visa": "yes",
    "wheelchair": "yes"
  }
},
{
  "type": "node",
  "id": 1612063561,
  "lat": 49.2209179,
  "lon": 16.5844221,
  "tags": {
    "addr:city": "Brno",
    "addr:housenumber": "35g",
    "addr:postcode": "61200",
    "addr:street": "Purkyňova",
    "amenity": "restaurant",
    "cuisine": "vietnamese",
    "diet:vegetarian": "yes",
    "name": "Chilli Tree"
  }
},
{
  "type": "node",
  "id": 1612493945,
  "lat": 49.1968122,
  "lon": 16.6007375,
  "tags": {
    "addr:city": "Brno",
    "addr:housenumber": "15",
    "addr:postcode": "60200",
    "addr:street": "Údolní",
    "amenity": "cafe",
    "diet:vegetarian": "yes",
    "internet_access": "wlan",
    "name": "Café Mezzanine",
    "opening_hours": "Mo-Fr 07:00-23:00; Sa-Su 10:00-22:00",
    "wheelchair": "no"
  }
},
{
  "type": "node",
  "id": 1634148105,
  "lat": 49.2000342,
  "lon": 16.6021259,
  "tags": {
    "addr:city": "Brno",
    "addr:housenumber": "2",
    "addr:postcode": "60200",
    "addr:street": "Slovákova",
    "amenity": "restaurant",
    "cuisine": "healthy",
    "diet:vegan": "yes",
    "diet:vegetarian": "yes",
    "name": "Oaza",
    "opening_hours": "Mo-Fr 07:30-18:00",
    "wheelchair": "limited"
  }
},
{
  "type": "node",
  "id": 1809222680,
  "lat": 49.1942448,
  "lon": 16.6352746,
  "tags": {
    "amenity": "restaurant",
    "cuisine": "indian",
    "diet:vegan": "no",
    "diet:vegetarian": "yes",
    "email": "info@restaurant-goa.cz",
    "name": "Indická restaurace GOA",
    "opening_hours": "Mo-Su 11:00-22:00; Fr 11:00-23:00",
    "phone": "+420602505551",
    "source": "survey",
    "website": "http://www.restaurant-goa.cz/",
    "wheelchair": "no"
  }
},
{
  "type": "node",
  "id": 1895791088,
  "lat": 49.1953952,
  "lon": 16.6112202,
  "tags": {
    "addr:city": "Brno",
    "addr:housenumber": "15",
    "addr:postcode": "60200",
    "addr:street": "Kobližná",
    "amenity": "fast_food",
    "diet:vegetarian": "yes",
    "name": "Big Food Point",
    "opening_hours": "24/7",
    "wheelchair": "yes"
  }
},
{
  "type": "node",
  "id": 1925175856,
  "lat": 49.2215458,
  "lon": 16.5963825,
  "tags": {
    "addr:city": "Brno",
    "addr:housenumber": "54",
    "addr:postcode": "61200",
    "addr:street": "Palackého třída",
    "amenity": "fast_food",
    "cuisine": "burger",
    "delivery": "yes",
    "diet:vegetarian": "yes",
    "name": "Brutus",
    "opening_hours": "24/7",
    "opening_hours:url": "http://www.obcerstvenibrutus.cz/provozovny",
    "phone": "+420 608 332 281",
    "takeaway": "yes",
    "website": "http://www.obcerstvenibrutus.cz/",
    "wheelchair": "limited"
  }
},
{
  "type": "node",
  "id": 2087568906,
  "lat": 49.1802185,
  "lon": 16.6045173,
  "tags": {
    "addr:city": "Brno",
    "addr:housenumber": "1",
    "addr:postcode": "63900",
    "addr:street": "Holandská",
    "amenity": "restaurant",
    "capacity": "86",
    "contact:website": "http://www.rebio.cz",
    "diet:vegan": "yes",
    "diet:vegetarian": "yes",
    "name": "Rebio",
    "opening_hours": "Mo-Fr 08:00-18:00",
    "wheelchair": "yes"
  }
},
{
  "type": "node",
  "id": 2173043957,
  "lat": 49.2226846,
  "lon": 16.5846348,
  "tags": {
    "addr:city": "Brno",
    "addr:country": "CZ",
    "addr:postcode": "61200",
    "addr:street": "Purkyňova",
    "addr:streetnumber": "80",
    "amenity": "restaurant",
    "contact:email": "info@napurkynce.cz",
    "diet:vegetarian": "yes",
    "internet_access": "wlan",
    "internet_access:fee": "no",
    "name": "Na Purkyňce",
    "opening_hours": "Mo-Sa 11:00-24:00; Su off",
    "outdoor_seating": "no",
    "phone": "+420530340995",
    "reservation": "yes",
    "smoking": "isolated",
    "takeaway": "yes",
    "website": "http://www.napurkynce.cz",
    "wheelchair": "no"
  }
},
{
  "type": "node",
  "id": 2213112183,
  "lat": 49.1927975,
  "lon": 16.6096883,
  "tags": {
    "addr:city": "Brno",
    "addr:housenumber": "1",
    "addr:postcode": "60200",
    "addr:street": "Zelný trh",
    "amenity": "fast_food",
    "brand": "Subway",
    "brand:wikidata": "Q244457",
    "brand:wikipedia": "en:Subway (restaurant)",
    "cuisine": "sandwich",
    "delivery": "yes",
    "diet:vegetarian": "yes",
    "name": "Subway",
    "opening_hours": "Mo-Fr 08:00-23:00; Sa-Su 09:00-23:00",
    "payment:bitcoin": "yes",
    "payment:litecoin": "yes",
    "smoking": "no",
    "takeaway": "yes",
    "website": "https://www.sendvice.com/",
    "wheelchair": "no"
  }
},
{
  "type": "node",
  "id": 2249407728,
  "lat": 49.1954517,
  "lon": 16.6099376,
  "tags": {
    "addr:city": "Brno",
    "addr:housenumber": "5",
    "addr:postcode": "60200",
    "addr:street": "Kobližná",
    "amenity": "restaurant",
    "check_date:opening_hours": "2020-09-29",
    "cuisine": "indian",
    "diet:vegetarian": "yes",
    "internet_access": "wlan",
    "name": "Veselá čajovna",
    "opening_hours": "Mo-Su 11:00-24:00",
    "outdoor_seating": "yes",
    "phone": "+420 542 212 719",
    "takeaway": "yes",
    "website": "http://www.veselacajovna.cz/",
    "wheelchair": "no"
  }
},
{
  "type": "node",
  "id": 2257940938,
  "lat": 49.1955678,
  "lon": 16.6065147,
  "tags": {
    "addr:city": "Brno",
    "addr:housenumber": "5",
    "addr:postcode": "60200",
    "addr:street": "Česká",
    "amenity": "restaurant",
    "cuisine": "regional",
    "diet:vegan": "yes",
    "diet:vegetarian": "yes",
    "name": "Stopkova plzeňská pivnice",
    "opening_hours": "Mo-Su 11:00-24:00",
    "phone": "+420 517 070 080",
    "reservation": "recommended",
    "website": "https://www.kolkovna.cz/",
    "wheelchair": "limited",
    "wikidata": "Q21809707"
  }
},
{
  "type": "node",
  "id": 2287742311,
  "lat": 49.1969203,
  "lon": 16.6091793,
  "tags": {
    "addr:city": "Brno",
    "addr:housenumber": "18",
    "addr:postcode": "60200",
    "addr:street": "Běhounská",
    "amenity": "restaurant",
    "cuisine": "grill",
    "diet:vegetarian": "yes",
    "internet_access": "wlan",
    "internet_access:fee": "no",
    "name": "La Bouchée",
    "opening_hours": "Mo-Th 08:00-23:00, Fr-Sa 08:00-24:00, Su 10:00-22:00",
    "outdoor_seating": "yes",
    "smoking": "no",
    "website": "https://www.labouchee.cz/",
    "wheelchair": "limited"
  }
},
{
  "type": "node",
  "id": 2487478366,
  "lat": 49.1908708,
  "lon": 16.6039455,
  "tags": {
    "addr:city": "Brno",
    "addr:housenumber": "21",
    "addr:postcode": "60200",
    "addr:street": "Kopečná",
    "amenity": "cafe",
    "diet:vegetarian": "yes",
    "internet_access": "wlan",
    "name": "Flexaret",
    "opening_hours": "Mo-Fr 10:00-24:00, Sa-Su 13:00-24:00",
    "outdoor_seating": "yes",
    "phone": "+420 530 341 628",
    "smoking": "no",
    "wheelchair": "no"
  }
},
{
  "type": "node",
  "id": 2724376026,
  "lat": 49.1961316,
  "lon": 16.6122454,
  "tags": {
    "addr:city": "Brno",
    "addr:housenumber": "2",
    "addr:postcode": "60200",
    "addr:street": "Sukova",
    "amenity": "restaurant",
    "changing_table:fee": "no",
    "cuisine": "italian;pizza",
    "diet:vegetarian": "yes",
    "email": "info@leonessa.cz",
    "internet_access": "wlan",
    "name": "Ristorante Pizzeria Leonessa",
    "opening_hours": "Tu-Th 11:30-23:00; Fr 11:30-24:00; Sa 12:00-24:00",
    "operator": "Solo Pizza s.r.o.",
    "outdoor_seating": "yes",
    "phone": "+420 542 212 236",
    "smoking": "separated",
    "website": "http://leonessa.cz",
    "wheelchair": "no"
  }
},
{
  "type": "node",
  "id": 2805580190,
  "lat": 49.2043318,
  "lon": 16.6084917,
  "tags": {
    "addr:city": "Brno",
    "addr:housenumber": "4a",
    "addr:postcode": "60200",
    "addr:street": "Lužánecká",
    "amenity": "cafe",
    "cuisine": "regional",
    "diet:vegetarian": "yes",
    "internet_access": "wlan",
    "name": "Park Lane",
    "opening_hours": "Mo-Fr 7:30-23:00; Sa 8:00-23:00",
    "smoking": "no",
    "website": "http://www.parklanecafe.cz/"
  }
},
{
  "type": "node",
  "id": 2815481532,
  "lat": 49.1970797,
  "lon": 16.6122616,
  "tags": {
    "addr:city": "Brno",
    "addr:housenumber": "9",
    "addr:postcode": "60200",
    "addr:street": "Rooseveltova",
    "amenity": "restaurant",
    "diet:vegan": "yes",
    "diet:vegetarian": "yes",
    "name": "Fabrik Urban House"
  }
},
{
  "type": "node",
  "id": 2816946248,
  "lat": 49.2141794,
  "lon": 16.6233350,
  "tags": {
    "addr:city": "Brno",
    "addr:housenumber": "40",
    "addr:postcode": "61300",
    "addr:street": "Provazníkova",
    "amenity": "fast_food",
    "diet:vegan": "yes",
    "diet:vegetarian": "yes",
    "name": "Pizzerie U Montyho",
    "phone": "+420 736 621 591",
    "website": "http://www.pizzerieumontyho.cz/"
  }
},
{
  "type": "node",
  "id": 2916543710,
  "lat": 49.1936156,
  "lon": 16.6095409,
  "tags": {
    "addr:city": "Brno",
    "addr:housenumber": "7",
    "addr:postcode": "60200",
    "addr:street": "Masarykova",
    "amenity": "fast_food",
    "cuisine": "bagel",
    "diet:vegetarian": "yes",
    "name": "Bageterie Boulevard",
    "opening_hours": "Mo-Su 07:00-22:00",
    "operator": "Bageterie Boulevard",
    "website": "https://www.bb.cz",
    "wheelchair": "no"
  }
},
{
  "type": "node",
  "id": 3028521167,
  "lat": 49.1995026,
  "lon": 16.6136149,
  "tags": {
    "amenity": "restaurant",
    "diet:vegetarian": "yes",
    "name": "Spirála"
  }
},
{
  "type": "node",
  "id": 3079093207,
  "lat": 49.1929543,
  "lon": 16.6047294,
  "tags": {
    "addr:city": "Brno",
    "addr:housenumber": "13",
    "addr:postcode": "60200",
    "addr:street": "Husova",
    "amenity": "restaurant",
    "diet:raw": "yes",
    "diet:vegetarian": "yes",
    "email": "info@my-kitchen.cz",
    "internet_access": "wlan",
    "name": "My Kitchen",
    "opening_hours": "Mo-Fr 07:30-21:00; Sa,Su 09:00-19:00",
    "payment:maestro": "yes",
    "payment:mastercard": "yes",
    "payment:visa": "yes",
    "payment:visa_debit": "yes",
    "payment:visa_electron": "yes",
    "phone": "+420 731 543 554",
    "website": "https://www.my-kitchen.cz/"
  }
},
{
  "type": "node",
  "id": 3098348684,
  "lat": 49.1998261,
  "lon": 16.5966001,
  "tags": {
    "addr:city": "Brno",
    "addr:housenumber": "1a",
    "addr:postcode": "60200",
    "addr:street": "Jiráskova",
    "amenity": "cafe",
    "cuisine": "dessert",
    "diet:vegan": "yes",
    "diet:vegetarian": "yes",
    "name": "Tutti Frutti",
    "opening_hours": "Mo-Su 10:00-18:00",
    "phone": "+420722944536",
    "website": "https://cukrarna-tutti-frutti.webnode.cz/",
    "wheelchair": "limited"
  }
},
{
  "type": "node",
  "id": 3098671162,
  "lat": 49.2169724,
  "lon": 16.5991492,
  "tags": {
    "addr:city": "Brno",
    "addr:housenumber": "78",
    "addr:postcode": "61200",
    "addr:street": "Štefánikova",
    "amenity": "restaurant",
    "diet:vegetarian": "yes",
    "name": "Má hostina",
    "opening_hours": "Mo-Su 11:00-20:00",
    "outdoor_seating": "no",
    "wheelchair": "no"
  }
},
{
  "type": "node",
  "id": 3156028165,
  "lat": 49.2205113,
  "lon": 16.5871535,
  "tags": {
    "addr:city": "Brno",
    "addr:housenumber": "81",
    "addr:postcode": "61200",
    "addr:street": "Svatopluka Čecha",
    "amenity": "restaurant",
    "check_date:opening_hours": "2020-09-22",
    "cuisine": "curry;indian",
    "diet:vegetarian": "yes",
    "name": "Taste of India",
    "opening_hours": "Mo-Su 11:00-22:00",
    "phone": "+420792223009",
    "website": "https://www.taste-of-india.cz/",
    "wheelchair": "no"
  }
},
{
  "type": "node",
  "id": 3156109237,
  "lat": 49.2074038,
  "lon": 16.6021335,
  "tags": {
    "addr:city": "Brno",
    "addr:housenumber": "39",
    "addr:postcode": "60200",
    "addr:street": "Kotlářská",
    "amenity": "fast_food",
    "cuisine": "burger;kebab;pizza",
    "diet:vegetarian": "yes",
    "name": "OKA bistro",
    "opening_hours": "Mo-Sa 10:30-22:00",
    "wheelchair": "no"
  }
},
{
  "type": "node",
  "id": 3156946990,
  "lat": 49.1946729,
  "lon": 16.6127875,
  "tags": {
    "addr:city": "Brno",
    "addr:housenumber": "4",
    "addr:postcode": "60200",
    "addr:street": "Novobranská",
    "amenity": "restaurant",
    "cuisine": "italian",
    "diet:vegetarian": "yes",
    "internet_access": "wlan",
    "name": "Castellana trattoria",
    "opening_hours": "Mo-Fr 11:00-23:00; Sa 12:00-22:00",
    "website": "https://www.castellana.cz/",
    "wheelchair": "no"
  }
},
{
  "type": "node",
  "id": 3157717966,
  "lat": 49.2031433,
  "lon": 16.5968540,
  "tags": {
    "addr:city": "Brno",
    "addr:housenumber": "57",
    "addr:postcode": "60200",
    "addr:street": "Veveří",
    "amenity": "restaurant",
    "cuisine": "burger",
    "diet:vegetarian": "yes",
    "internet_access": "wlan",
    "name": "The Immigrant",
    "opening_hours": "Mo-Th 11:00-23:00; Fr-Sa 12:00-02:00, Su 12:00-23:00",
    "phone": "+420 792 202 231",
    "website": "https://www.theimmigrant.cz/",
    "wheelchair": "no"
  }
},
{
  "type": "node",
  "id": 3157724319,
  "lat": 49.2105506,
  "lon": 16.5867930,
  "tags": {
    "addr:city": "Brno",
    "addr:housenumber": "2",
    "addr:postcode": "61600",
    "addr:street": "Minská",
    "amenity": "cafe",
    "diet:vegetarian": "yes",
    "name": "Cukrářství Bukovský",
    "opening_hours": "Mo-Su 09:00-20:00",
    "phone": "+420 777476797",
    "wheelchair": "no"
  }
},
{
  "type": "node",
  "id": 3157743562,
  "lat": 49.2110403,
  "lon": 16.5831560,
  "tags": {
    "addr:city": "Brno",
    "addr:housenumber": "1",
    "addr:postcode": "61600",
    "addr:street": "Králova",
    "amenity": "restaurant",
    "cuisine": "pizza",
    "diet:vegetarian": "yes",
    "name": "Viva",
    "opening_hours": "Mo-Th 11:00-22:30; Fr 11:00-23:00; Sa 12:00-22:30",
    "phone": "+420 736 163 494",
    "website": "https://pizzerie-viva.cz/"
  }
},
{
  "type": "node",
  "id": 3157743563,
  "lat": 49.2116676,
  "lon": 16.5827081,
  "tags": {
    "addr:city": "Brno",
    "addr:housenumber": "52",
    "addr:postcode": "61600",
    "addr:street": "Minská",
    "amenity": "cafe",
    "diet:vegetarian": "yes",
    "internet_access": "wlan",
    "name": "Cukrárna Bali",
    "opening_hours": "Mo-Fr 10:00-18:00; Sa,Su 14:00-18:00",
    "wheelchair": "no"
  }
},
{
  "type": "node",
  "id": 3159165866,
  "lat": 49.1943978,
  "lon": 16.6077042,
  "tags": {
    "addr:city": "Brno",
    "addr:housenumber": "1",
    "addr:postcode": "60200",
    "addr:street": "Zámečnická",
    "amenity": "restaurant",
    "cuisine": "regional",
    "diet:vegetarian": "yes",
    "name": "NOK NOK Restaurant",
    "opening_hours": "Mo-Tu 11:00-23:00; We-Th 11:00-24:00; Fr-Sa 11:00-01:00, Su 11:00-22:00",
    "phone": "+420 513 035 030",
    "website": "https://www.noknokrestaurant.cz/",
    "wheelchair": "limited"
  }
},
{
  "type": "node",
  "id": 3159225472,
  "lat": 49.1913429,
  "lon": 16.6116589,
  "tags": {
    "addr:city": "Brno",
    "addr:housenumber": "8",
    "addr:postcode": "60200",
    "addr:street": "Nádražní",
    "amenity": "restaurant",
    "cuisine": "indian;nepalese",
    "diet:vegetarian": "yes",
    "name": "The Himalaya",
    "opening_hours": "Mo-Fr 11:00-23:00; Sa,Su 12:00-23:00; PH 12:00-23:00",
    "outdoor_seating": "no",
    "phone": "+420 777 404 124",
    "website": "http://www.himalayarestaurace.cz",
    "wheelchair": "no"
  }
},
{
  "type": "node",
  "id": 3159240515,
  "lat": 49.1926575,
  "lon": 16.6104348,
  "tags": {
    "addr:city": "Brno",
    "addr:housenumber": "25",
    "addr:postcode": "60200",
    "addr:street": "Masarykova",
    "amenity": "fast_food",
    "diet:vegetarian": "yes",
    "name": "Turecký kebap",
    "wheelchair": "yes"
  }
},
{
  "type": "node",
  "id": 3163520277,
  "lat": 49.1958818,
  "lon": 16.6123983,
  "tags": {
    "addr:city": "Brno",
    "addr:housenumber": "2",
    "addr:postcode": "60200",
    "addr:street": "Sukova",
    "amenity": "cafe",
    "diet:vegan": "yes",
    "diet:vegetarian": "yes",
    "internet_access": "wlan",
    "name": "Jedna báseň",
    "opening_hours": "Mo-Th 08:00-23:00; Fr 08:00-01:00, Sa 11:30-24:00; Su 11:30-23:00",
    "outdoor_seating": "yes",
    "phone": "+420 542 211 444",
    "website": "http://www.jedna-basen.cz/",
    "wheelchair": "no"
  }
},
{
  "type": "node",
  "id": 3188485943,
  "lat": 49.2023666,
  "lon": 16.6080301,
  "tags": {
    "addr:city": "Brno",
    "addr:housenumber": "26",
    "addr:postcode": "60200",
    "addr:street": "Lidická",
    "amenity": "restaurant",
    "diet:vegetarian": "yes",
    "email": "rezervace@golden-nepal.cz",
    "name": "Golden Nepal",
    "opening_hours": "Mo-Th 10:00-22:00; Fr 10:00-23:00; Sa,Su 11:00-22:00",
    "payment:maestro": "yes",
    "payment:mastercard": "yes",
    "payment:visa": "yes",
    "payment:visa_debit": "yes",
    "payment:visa_electron": "yes",
    "phone": "+420 720 940 504",
    "website": "https://www.golden-nepal.cz/",
    "wheelchair": "yes"
  }
},
{
  "type": "node",
  "id": 3191329839,
  "lat": 49.1970322,
  "lon": 16.6061301,
  "tags": {
    "addr:city": "Brno",
    "addr:housenumber": "6",
    "addr:postcode": "60200",
    "addr:street": "Solniční",
    "amenity": "fast_food",
    "diet:halal": "yes",
    "diet:vegan": "yes",
    "diet:vegetarian": "yes",
    "name": "ABÍR arabská kuchyně",
    "opening_hours": "Mo 10:00-20:00; Tu-Fr 09:00-20:00",
    "phone": "+420 777 170 910",
    "shop": "convenience",
    "takeaway": "yes",
    "wheelchair": "yes"
  }
},
{
  "type": "node",
  "id": 3191349082,
  "lat": 49.1970208,
  "lon": 16.6008569,
  "tags": {
    "addr:city": "Brno",
    "addr:housenumber": "4",
    "addr:postcode": "60200",
    "addr:street": "Údolní",
    "amenity": "restaurant",
    "cuisine": "pizza;burger;italian",
    "diet:vegan": "yes",
    "diet:vegetarian": "yes",
    "internet_access": "wlan",
    "name": "La Famiglia",
    "opening_hours": "Mo-Sa 11:00-23:00; Su 11:00-22:00",
    "takeaway": "yes",
    "website": "https://www.lafamigliabrno.cz",
    "wheelchair": "no"
  }
},
{
  "type": "node",
  "id": 3191349085,
  "lat": 49.1979147,
  "lon": 16.6021578,
  "tags": {
    "addr:city": "Brno",
    "addr:housenumber": "2",
    "addr:postcode": "60200",
    "addr:street": "Jaselská",
    "amenity": "restaurant",
    "cuisine": "burger",
    "diet:vegan": "yes",
    "diet:vegetarian": "yes",
    "internet_access": "wlan",
    "internet_access:fee": "yes",
    "name": "East Village",
    "opening_hours": "Mo-Fr 10:00-02:00, Sa 11:00-02:00, Su 11:00-01:00",
    "phone": "+420 608 193 627",
    "website": "https://www.eastvillage.cz/",
    "wheelchair": "no"
  }
},
{
  "type": "node",
  "id": 3220460505,
  "lat": 49.1970601,
  "lon": 16.6102475,
  "tags": {
    "addr:city": "Brno",
    "addr:housenumber": "7",
    "addr:street": "Jezuitská",
    "amenity": "restaurant",
    "cuisine": "international",
    "diet:vegetarian": "yes",
    "name": "Soul Bistro",
    "opening_hours": "Mo-Th 08:00-22:00; Fr 08:00-23:00; Sa 10:00-23:00",
    "phone": "+420 773 179 212",
    "wheelchair": "no"
  }
},
{
  "type": "node",
  "id": 3221039427,
  "lat": 49.2240212,
  "lon": 16.5935157,
  "tags": {
    "addr:city": "Brno",
    "addr:housenumber": "8",
    "addr:postcode": "61200",
    "addr:street": "Husitská",
    "amenity": "cafe",
    "diet:vegetarian": "yes",
    "name": "Buon Giorno",
    "opening_hours": "Mo,Tu,Th,Fr 08:00-17:30; We 08:00-19:00; Sa 09:00-12:00",
    "wheelchair": "no"
  }
},
{
  "type": "node",
  "id": 3221039429,
  "lat": 49.2239827,
  "lon": 16.5933387,
  "tags": {
    "addr:city": "Brno",
    "addr:housenumber": "8a",
    "addr:postcode": "61200",
    "addr:street": "Husitská",
    "amenity": "restaurant",
    "cuisine": "regional",
    "diet:vegetarian": "yes",
    "name": "Krčma u svatého Václava",
    "opening_hours": "Mo-Fr 11:00-23:00",
    "phone": "+420 721 665 602",
    "smoking": "no",
    "takeaway": "yes",
    "website": "http://www.krcmausvatehovaclava.cz/",
    "wheelchair": "no"
  }
},
{
  "type": "node",
  "id": 3221039438,
  "lat": 49.2235675,
  "lon": 16.5934728,
  "tags": {
    "addr:city": "Brno",
    "addr:housenumber": "9",
    "addr:postcode": "61200",
    "addr:street": "Husitská",
    "amenity": "fast_food",
    "check_date:opening_hours": "2020-09-24",
    "cuisine": "pizza",
    "diet:vegetarian": "yes",
    "name": "Omega Pizza",
    "opening_hours": "Mo-Th 10:00-22:00; Fr-Su 10:00-23:00",
    "wheelchair": "no"
  }
},
{
  "type": "node",
  "id": 3243017872,
  "lat": 49.1922579,
  "lon": 16.6122453,
  "tags": {
    "addr:city": "Brno",
    "addr:housenumber": "14",
    "addr:postcode": "60200",
    "addr:street": "Josefská",
    "amenity": "restaurant",
    "cuisine": "indian",
    "diet:vegetarian": "yes",
    "name": "Annapurna",
    "opening_hours": "Mo-Fr 11:00-23:00; Sa,Su 12:00-23:00",
    "outdoor_seating": "no",
    "phone": "+420 776 024 396",
    "takeaway": "yes",
    "website": "http://www.indicka-restaurace-annapurna.cz/",
    "wheelchair": "no"
  }
},
{
  "type": "node",
  "id": 3253626431,
  "lat": 49.2113228,
  "lon": 16.6019074,
  "tags": {
    "addr:city": "Brno",
    "addr:housenumber": "35",
    "addr:postcode": "60200",
    "addr:street": "Štefánikova",
    "amenity": "restaurant",
    "cuisine": "indian",
    "diet:vegetarian": "yes",
    "name": "Light of India",
    "opening_hours": "Mo-Fr 10:30-22:30; Sa-Su 11:30-22:30",
    "website": "http://lightofindia.cz/",
    "wheelchair": "no"
  }
},
{
  "type": "node",
  "id": 3389127488,
  "lat": 49.1928398,
  "lon": 16.6099600,
  "tags": {
    "addr:city": "Brno",
    "addr:housenumber": "12",
    "addr:postcode": "60200",
    "addr:street": "Masarykova",
    "amenity": "fast_food",
    "diet:vegetarian": "yes",
    "name": "Pizza Hot",
    "opening_hours": "Mo-Sa 09:00-24:00, Su 10:00-20:00",
    "wheelchair": "no"
  }
},
{
  "type": "node",
  "id": 3389127496,
  "lat": 49.1922360,
  "lon": 16.6103154,
  "tags": {
    "addr:city": "Brno",
    "addr:housenumber": "22",
    "addr:postcode": "60200",
    "addr:street": "Masarykova",
    "amenity": "restaurant",
    "cuisine": "vietnamese",
    "diet:vegetarian": "yes",
    "name": "SunRice"
  }
},
{
  "type": "node",
  "id": 3389141164,
  "lat": 49.1913946,
  "lon": 16.6108023,
  "tags": {
    "addr:city": "Brno",
    "addr:housenumber": "34",
    "addr:postcode": "60200",
    "addr:street": "Masarykova",
    "amenity": "fast_food",
    "cuisine": "pasta",
    "diet:vegetarian": "yes",
    "name": "Pasta di gusto",
    "opening_hours": "Mo-Fr 10:00-20:30; Sa 11:00-20:30",
    "wheelchair": "no"
  }
},
{
  "type": "node",
  "id": 3389594272,
  "lat": 49.1914826,
  "lon": 16.6110182,
  "tags": {
    "addr:city": "Brno",
    "addr:housenumber": "33",
    "addr:postcode": "60200",
    "addr:street": "Masarykova",
    "amenity": "fast_food",
    "diet:vegetarian": "yes",
    "name": "Big Food Point",
    "opening_hours": "24/7",
    "wheelchair": "limited"
  }
},
{
  "type": "node",
  "id": 3390996340,
  "lat": 49.1923891,
  "lon": 16.6067043,
  "tags": {
    "addr:city": "Brno",
    "addr:housenumber": "13",
    "addr:postcode": "60200",
    "addr:street": "Starobrněnská",
    "amenity": "fast_food",
    "diet:vegetarian": "yes",
    "name": "TrdloCafé",
    "wheelchair": "yes"
  }
},
{
  "type": "node",
  "id": 3467187412,
  "lat": 49.1955303,
  "lon": 16.6084577,
  "tags": {
    "addr:city": "Brno",
    "addr:housenumber": "5",
    "addr:postcode": "60200",
    "addr:street": "náměstí Svobody",
    "amenity": "restaurant",
    "cuisine": "regional",
    "diet:vegan": "yes",
    "diet:vegetarian": "yes",
    "internet_access": "wlan",
    "name": "Zlatá loď",
    "opening_hours": "Mo-Th 11:00-24:00, Fr 11:00-01:00, Sa 11:30-01:00, Su 11:30-23:00",
    "outdoor_seating": "yes",
    "phone": "+420 778 420 000",
    "website": "http://www.zlatalod.com/",
    "wheelchair": "yes"
  }
},
{
  "type": "node",
  "id": 3467240005,
  "lat": 49.1937067,
  "lon": 16.6113332,
  "tags": {
    "addr:city": "Brno",
    "addr:housenumber": "12",
    "addr:postcode": "60200",
    "addr:street": "Minoritská",
    "amenity": "fast_food",
    "cuisine": "burger",
    "diet:vegetarian": "yes",
    "name": "Hamburger",
    "opening_hours": "Mo-Sa 08:00-20:00",
    "wheelchair": "limited"
  }
},
{
  "type": "node",
  "id": 3498298188,
  "lat": 49.1971422,
  "lon": 16.6091183,
  "tags": {
    "addr:city": "Brno",
    "addr:housenumber": "20",
    "addr:postcode": "60200",
    "addr:street": "Běhounská",
    "amenity": "fast_food",
    "cuisine": "potato",
    "diet:vegetarian": "yes",
    "name": "Love Patatas",
    "opening_hours": "Mo 11:00-21:00; Tu-We 11:00-15:00; Th 11:00-21:00; Fr 11:00-23:00",
    "phone": "+420 736 110 158",
    "smoking": "no",
    "takeaway": "yes",
    "wheelchair": "limited"
  }
},
{
  "type": "node",
  "id": 3498314545,
  "lat": 49.1955276,
  "lon": 16.6075364,
  "tags": {
    "addr:city": "Brno",
    "addr:housenumber": "3",
    "addr:postcode": "60200",
    "addr:street": "náměstí Svobody",
    "amenity": "restaurant",
    "cuisine": "regional;grill",
    "diet:vegetarian": "yes",
    "internet_access": "wlan",
    "name": "Štatl",
    "opening_hours": "Mo-Th 11:00-24:00, Fr 11:00-01:00, Sa 12:00-01:00",
    "phone": "+420 702 018 730",
    "takeaway": "no",
    "website": "http://www.statlbrno.cz/",
    "wheelchair": "yes"
  }
},
{
  "type": "node",
  "id": 3660667044,
  "lat": 49.1977850,
  "lon": 16.6056170,
  "tags": {
    "addr:city": "Brno",
    "addr:housenumber": "6",
    "addr:postcode": "60200",
    "addr:street": "Joštova",
    "amenity": "fast_food",
    "cuisine": "turkish",
    "diet:vegetarian": "yes",
    "name": "Azeri Döner Kebab",
    "opening_hours": "24/7",
    "source": "survey",
    "wheelchair": "no"
  }
},
{
  "type": "node",
  "id": 3716741798,
  "lat": 49.2106309,
  "lon": 16.5864364,
  "tags": {
    "addr:city": "Brno",
    "addr:housenumber": "4",
    "addr:postcode": "61600",
    "addr:street": "Minská",
    "amenity": "fast_food",
    "cuisine": "pizza;burger;salad;chinese",
    "delivery": "yes",
    "diet:vegetarian": "yes",
    "drive_through": "no",
    "name": "Maníkovo bistro",
    "opening_hours": "Mo-Th 10:00-23:00; Fr-Sa 10:00-24:00; Su 10:00-23:00",
    "operator": "Chachar Catering s.r.o.",
    "takeaway": "yes",
    "website": "https://www.manikova-pizza.cz/",
    "wheelchair": "no"
  }
},
{
  "type": "node",
  "id": 3899801095,
  "lat": 49.1958728,
  "lon": 16.6094489,
  "tags": {
    "addr:city": "Brno",
    "addr:housenumber": "3",
    "addr:postcode": "60200",
    "addr:street": "Kozí",
    "amenity": "restaurant",
    "cuisine": "regional",
    "diet:vegetarian": "yes",
    "email": "ucaipla@ambi.cz",
    "internet_access": "wlan",
    "name": "Lokál U Caipla",
    "opening_hours": "Mo-Sa 11:00-24:00; Su 11:00-22:00",
    "phone": "+420 731 594 671",
    "website": "http://lokal-ucaipla.ambi.cz/",
    "wheelchair": "yes"
  }
},
{
  "type": "node",
  "id": 3987013005,
  "lat": 49.1955326,
  "lon": 16.6082684,
  "tags": {
    "addr:city": "Brno",
    "addr:housenumber": "5",
    "addr:postcode": "60200",
    "addr:street": "náměstí Svobody",
    "amenity": "cafe",
    "brand": "Starbucks",
    "brand:wikidata": "Q37158",
    "brand:wikipedia": "en:Starbucks",
    "cuisine": "coffee_shop",
    "diet:vegetarian": "yes",
    "internet_access": "wlan",
    "name": "Starbucks",
    "official_name": "Starbucks Coffee",
    "opening_hours": "Mo-Fr 07:00-22:00; Sa,Su 08:00-22:00",
    "phone": "+420 727 946 501",
    "takeaway": "yes",
    "website": "http://www.starbuckscoffee.cz/",
    "wheelchair": "limited"
  }
},
{
  "type": "node",
  "id": 4031417230,
  "lat": 49.2034974,
  "lon": 16.6102094,
  "tags": {
    "addr:city": "Brno",
    "addr:housenumber": "37a",
    "addr:postcode": "60200",
    "addr:street": "třída Kpt. Jaroše",
    "amenity": "cafe",
    "diet:vegetarian": "yes",
    "internet_access": "wlan",
    "name": "Kočičí kavárna Pelíšek",
    "opening_hours": "Mo-Fr 10:00-21:00; Sa-Su 13:00-19:00",
    "outdoor_seating": "yes",
    "payment:maestro": "yes",
    "payment:mastercard": "yes",
    "payment:visa": "yes",
    "payment:visa_debit": "yes",
    "payment:visa_electron": "yes",
    "phone": "+420 773 500 640",
    "takeaway": "yes",
    "website": "http://kocicipelisek.cz/",
    "wheelchair": "yes"
  }
},
{
  "type": "node",
  "id": 4199057389,
  "lat": 49.1931201,
  "lon": 16.6105696,
  "tags": {
    "addr:city": "Brno",
    "addr:housenumber": "6",
    "addr:postcode": "60200",
    "addr:street": "Orlí",
    "amenity": "restaurant",
    "cuisine": "thai",
    "diet:vegan": "yes",
    "diet:vegetarian": "yes",
    "internet_access": "wlan",
    "name": "Singha",
    "smoking": "no",
    "wheelchair": "yes"
  }
},
{
  "type": "node",
  "id": 4225418835,
  "lat": 49.1946303,
  "lon": 16.6081105,
  "tags": {
    "amenity": "fast_food",
    "diet:vegetarian": "yes",
    "name": "Ugova salaterie",
    "opening_hours": "Mo-Fr 07:00-21:00; Sa,Su 10:00-21:00",
    "website": "http://www.ugo.cz/",
    "wheelchair": "limited"
  }
},
{
  "type": "node",
  "id": 4225418836,
  "lat": 49.1959019,
  "lon": 16.6090385,
  "tags": {
    "addr:city": "Brno",
    "addr:housenumber": "4",
    "addr:postcode": "60200",
    "addr:street": "Běhounská",
    "amenity": "restaurant",
    "check_date:opening_hours": "2020-09-29",
    "cuisine": "vietnamese",
    "diet:vegan": "yes",
    "diet:vegetarian": "yes",
    "name": "Gỗ Brno",
    "opening_hours": "Mo-Sa 11:00-22:00",
    "outdoor_seating": "yes",
    "phone": "+420 720 021 575",
    "wheelchair": "limited"
  }
},
{
  "type": "node",
  "id": 4231856489,
  "lat": 49.2049064,
  "lon": 16.6101276,
  "tags": {
    "amenity": "pub",
    "contact:email": "info@ponava.cafe",
    "contact:phone": "+420 739519650",
    "description": "Vege Bio lokal",
    "diet:vegan": "yes",
    "diet:vegetarian": "yes",
    "internet_access": "wlan",
    "name": "Ponava",
    "opening_hours": "Mo-Fr 10:00-22:00; Sa 12:00-22:00; Su 12:00-19:00",
    "organic": "yes",
    "outdoor_seating": "yes",
    "smoking": "outside",
    "website": "http://ponava.cafe",
    "wheelchair": "limited"
  }
},
{
  "type": "node",
  "id": 4296800076,
  "lat": 49.2150894,
  "lon": 16.5818601,
  "tags": {
    "amenity": "restaurant",
    "diet:vegetarian": "yes",
    "level": "0",
    "name": "La Corrida",
    "opening_hours": "Mo-Th 11:00-23:00; Fr 11:00-23:30; Sa,Su 11:00-23:00",
    "toilets:wheelchair": "limited",
    "wheelchair": "yes",
    "wheelchair:description": "Prahy ok. WC není zvlášť se speciálním vybavením, ale přesto relativně prostorné."
  }
},
{
  "type": "node",
  "id": 4354548484,
  "lat": 49.1920940,
  "lon": 16.6093599,
  "tags": {
    "addr:city": "Brno",
    "addr:housenumber": "4",
    "addr:postcode": "60200",
    "addr:street": "Zelný trh",
    "amenity": "restaurant",
    "cuisine": "italian",
    "diet:vegetarian": "yes",
    "name": "TEFITI",
    "opening_hours": "Mo-Th 11:00-23:00, Fr 11:00-24:00, Sa 09:00-24:00, Su 09:00-20:00",
    "outdoor_seating": "yes",
    "phone": "+420 601 150 000",
    "smoking": "outside",
    "website": "http://www.tefiti.cz/",
    "wheelchair": "limited"
  }
},
{
  "type": "node",
  "id": 4391809540,
  "lat": 49.1961254,
  "lon": 16.6093882,
  "tags": {
    "addr:city": "Brno",
    "addr:housenumber": "5",
    "addr:postcode": "60200",
    "addr:street": "Kozí",
    "amenity": "restaurant",
    "cuisine": "greek",
    "diet:vegetarian": "yes",
    "internet_access": "wlan",
    "name": "Cosmopolis",
    "opening_hours": "Mo-We 11:00-23:00; Th-Sa 11:00-24:00; Su 12:00-22:00",
    "phone": "+420530328370",
    "wheelchair": "limited"
  }
},
{
  "type": "node",
  "id": 4637984545,
  "lat": 49.2056674,
  "lon": 16.6052077,
  "tags": {
    "amenity": "restaurant",
    "diet:raw": "yes",
    "diet:vegan": "yes",
    "diet:vegetarian": "yes",
    "email": "brno@secretofraw.cz",
    "name": "Secret of Raw",
    "opening_hours": "Mo-Fr 10:00-20:00; Sa, Su 10:00-19:00",
    "phone": "+420 777 064 222",
    "website": "https://www.secretofraw.cz/"
  }
},
{
  "type": "node",
  "id": 4674341426,
  "lat": 49.1913818,
  "lon": 16.6092594,
  "tags": {
    "addr:postcode": "60200",
    "addr:street": "Kapucínské náměstí",
    "amenity": "cafe",
    "diet:vegan": "yes",
    "diet:vegetarian": "yes",
    "internet_access": "wlan",
    "name": "Café Pilát",
    "opening_hours": "Mo-Su 08:00-00:00",
    "outdoor_seating": "yes",
    "phone": "+420 603 974 496"
  }
},
{
  "type": "node",
  "id": 4713992742,
  "lat": 49.1918565,
  "lon": 16.6123858,
  "tags": {
    "amenity": "fast_food",
    "diet:vegetarian": "yes",
    "level": "1",
    "name": "UGO Freshbar",
    "opening_hours": "Mo-Fr 07:30-20:00; Sa 09:00-18:00; Su 10:00-18:00",
    "wheelchair": "yes"
  }
},
{
  "type": "node",
  "id": 4755966122,
  "lat": 48.8567370,
  "lon": 16.0600265,
  "tags": {
    "addr:housenumber": "1",
    "addr:postcode": "66902",
    "addr:street": "Fischerova",
    "amenity": "fast_food",
    "cuisine": "pizza",
    "delivery": "yes",
    "diet:vegetarian": "yes",
    "name": "Pizza La Strada",
    "name:cs": "Pizza La Strada",
    "opening_hours": "Mo-Sa 14:00-22:00; Su 12:00-20:00",
    "takeaway": "yes",
    "wheelchair": "no"
  }
},
{
  "type": "node",
  "id": 4757745210,
  "lat": 49.1997442,
  "lon": 16.5986505,
  "tags": {
    "addr:city": "Brno",
    "addr:housenumber": "15",
    "addr:postcode": "60200",
    "addr:street": "Gorkého",
    "amenity": "restaurant",
    "cuisine": "thai;vietnamese",
    "diet:vegan": "yes",
    "diet:vegetarian": "yes",
    "email": "info@suchibrno.cz",
    "internet_access": "wlan",
    "name": "Suchi",
    "opening_hours": "Mo-Fr 11:00-22:00",
    "phone": "+420 773 947 700",
    "smoking": "no",
    "takeaway": "yes",
    "website": "https://suchibrno.cz/",
    "wheelchair": "no"
  }
},
{
  "type": "node",
  "id": 5016994025,
  "lat": 49.1897393,
  "lon": 16.6140796,
  "tags": {
    "amenity": "fast_food",
    "diet:vegetarian": "yes",
    "name": "Sun Food",
    "opening_hours": "Mo-Su 09:00-21:00",
    "wheelchair": "limited"
  }
},
{
  "type": "node",
  "id": 5298329052,
  "lat": 49.1949336,
  "lon": 16.6075869,
  "tags": {
    "addr:city": "Brno",
    "addr:housenumber": "91/20",
    "addr:postcode": "60200",
    "addr:street": "náměstí Svobody",
    "amenity": "restaurant",
    "cuisine": "vietnamese",
    "diet:vegetarian": "yes",
    "name": "Diandi",
    "opening_hours": "Mo-Su 11:00-22:00",
    "payment:maestro": "yes",
    "payment:mastercard": "yes",
    "payment:visa": "yes",
    "payment:visa_debit": "yes",
    "payment:visa_electron": "yes",
    "phone": "+420 774 222 963",
    "smoking": "no",
    "website": "http://diandi.cz",
    "wheelchair": "limited"
  }
},
{
  "type": "node",
  "id": 5303014551,
  "lat": 49.1917386,
  "lon": 16.6098013,
  "tags": {
    "addr:city": "Brno",
    "addr:housenumber": "11",
    "addr:postcode": "60200",
    "addr:street": "Kapucínské náměstí",
    "amenity": "cafe",
    "diet:vegetarian": "yes",
    "name": "Mada ice cream",
    "opening_hours": "Mo 09:00-20:00; Tu-Sa 09:00-20:30; Su 10:00-20:00",
    "wheelchair": "no"
  }
},
{
  "type": "node",
  "id": 5363094225,
  "lat": 49.2237001,
  "lon": 16.5939656,
  "tags": {
    "amenity": "restaurant",
    "diet:vegetarian": "yes",
    "name": "Správné místo",
    "opening_hours": "Mo-Th 11:00-22:00; Fr 11:00-23:00; Sa 12:00-23:00; Su 12:00-21:00",
    "wheelchair": "no"
  }
},
{
  "type": "node",
  "id": 5416415840,
  "lat": 49.1993937,
  "lon": 16.6027050,
  "tags": {
    "addr:city": "Brno",
    "addr:housenumber": "10",
    "addr:postcode": "60200",
    "addr:street": "Veveří",
    "amenity": "restaurant",
    "cuisine": "japanese;ramen",
    "diet:gluten_free": "yes",
    "diet:vegan": "yes",
    "diet:vegetarian": "yes",
    "name": "Shōyu",
    "opening_hours": "Mo-Th 11:00-21:00; Fr-Su 11:00-15:00",
    "phone": "+420 773661060",
    "website": "https://shoyu.cz/"
  }
},
{
  "type": "node",
  "id": 5461956676,
  "lat": 49.1952444,
  "lon": 16.6090382,
  "tags": {
    "addr:city": "Brno",
    "addr:conscriptionnumber": "71",
    "addr:housenumber": "71/2",
    "addr:postcode": "60200",
    "addr:street": "Kobližná",
    "addr:streetnumber": "2",
    "amenity": "cafe",
    "bar": "yes",
    "contact:instagram": "https://www.instagram.com/atelier_bistro/",
    "cuisine": "regional;coffee;wine",
    "diet:vegetarian": "yes",
    "email": "info@atelierbar.cz",
    "name": "Atelier Cocktail Bar & Bistro",
    "opening_hours": "Mo-Fr 11:00-21:00; Sa 12:00-21:00",
    "outdoor_seating": "yes",
    "payment:cash": "yes",
    "payment:mastercard": "yes",
    "payment:visa": "yes",
    "payment:visa_electron": "yes",
    "phone": "+420 739 401 086",
    "reservation": "yes",
    "source:addr": "uir_adr",
    "uir_adr:ADRESA_KOD": "19094108",
    "website": "http://www.atelierbar.cz/",
    "wheelchair": "yes"
  }
},
{
  "type": "node",
  "id": 5645366621,
  "lat": 49.1909223,
  "lon": 16.6100787,
  "tags": {
    "addr:city": "Brno",
    "addr:housenumber": "414",
    "addr:postcode": "60200",
    "addr:street": "Bašty",
    "amenity": "fast_food",
    "diet:vegan": "yes",
    "diet:vegetarian": "yes",
    "email": "info@pokecz.cz",
    "name": "Pokecz",
    "opening_hours": "Mo-Fr 11:00-21:00; Sa 12:00-20:00; Su 12:00-15:00",
    "phone": "+420 725 414 007",
    "takeaway": "yes",
    "website": "https://www.pokecz.cz/"
  }
},
{
  "type": "node",
  "id": 5981702415,
  "lat": 49.2057386,
  "lon": 16.5991838,
  "tags": {
    "amenity": "restaurant",
    "diet:vegan": "yes",
    "diet:vegetarian": "yes",
    "name": "Restaurace Domov",
    "opening_hours": "Mo-Th 11:00-22:00; Fr 11:00-23:00; Sa 14:00-22:00",
    "outdoor_seating": "yes"
  }
},
{
  "type": "node",
  "id": 5997893486,
  "lat": 49.1913517,
  "lon": 16.6216798,
  "tags": {
    "addr:city": "Brno",
    "addr:housenumber": "45",
    "addr:postcode": "60200",
    "addr:street": "Křenová",
    "amenity": "cafe",
    "diet:lactose_free": "yes",
    "diet:raw": "yes",
    "diet:vegan": "yes",
    "diet:vegetarian": "yes",
    "email": "veg8cafe@email.cz",
    "name": "Veg8café",
    "opening_hours": "Mo-Fr 07:00-16:30",
    "phone": "+420 776670608",
    "takeaway": "yes",
    "website": "http://www.veg8cafe.cz/"
  }
},
{
  "type": "node",
  "id": 6000903541,
  "lat": 49.1939416,
  "lon": 16.6112952,
  "tags": {
    "amenity": "cafe",
    "diet:vegetarian": "yes",
    "name": "Le Bon caffe",
    "opening_hours": "Mo-Sa 08:00-21:00; Su 09:00-20:00",
    "payment:american_express": "yes",
    "payment:diners_club": "yes",
    "payment:discover_card": "yes",
    "payment:maestro": "yes",
    "payment:mastercard": "yes",
    "payment:visa": "yes",
    "payment:visa_debit": "yes",
    "payment:visa_electron": "yes",
    "wheelchair": "no"
  }
},
{
  "type": "node",
  "id": 6147610135,
  "lat": 49.1888573,
  "lon": 16.5986287,
  "tags": {
    "addr:housenumber": "226/2",
    "addr:street": "Václavská",
    "amenity": "cafe",
    "delivery": "no",
    "diet:vegan": "yes",
    "diet:vegetarian": "yes",
    "internet_access": "wlan",
    "internet_access:fee": "no",
    "name": "Ad Alta",
    "name:cs": "Kavárna Ad Alta",
    "opening_hours": "Mo-Fr 09:00-21:00; Sa 09:00-18:00",
    "smoking": "no",
    "wheelchair": "no"
  }
},
{
  "type": "node",
  "id": 6810240759,
  "lat": 49.1899719,
  "lon": 16.6138253,
  "tags": {
    "amenity": "cafe",
    "diet:vegetarian": "yes",
    "name": "Mooi",
    "opening_hours": "Mo-Sa 11:00-20:00; Su 11:30-20:00",
    "wheelchair": "limited"
  }
},
{
  "type": "node",
  "id": 7087007170,
  "lat": 49.1945203,
  "lon": 16.6089173,
  "tags": {
    "addr:city": "Brno",
    "addr:housenumber": "74/10",
    "addr:postcode": "60200",
    "addr:street": "náměstí Svobody",
    "amenity": "restaurant",
    "cuisine": "regional",
    "diet:vegetarian": "yes",
    "name": "U Mamlasů",
    "opening_hours": "Mo-Sa 11:00-01:00; Su 11:00-23:00",
    "wheelchair": "yes"
  }
},
{
  "type": "node",
  "id": 7122777719,
  "lat": 49.2135511,
  "lon": 16.5747549,
  "tags": {
    "addr:city": "Brno",
    "addr:housenumber": "35",
    "addr:postcode": "61600",
    "addr:street": "Horova",
    "amenity": "restaurant",
    "cuisine": "vietnamese;sushi",
    "diet:vegetarian": "yes",
    "name": "Táo Viet Nam Home Cooking & Sushi Bar",
    "opening_hours": "Mo-Fr 11:00-22:00; Sa-Su 12:00-22:00",
    "website": "https://www.facebook.com/T%C3%A1o-Viet-Nam-Home-Cooking-Sushi-Bar-1857934510936812/",
    "wheelchair": "limited"
  }
},
{
  "type": "node",
  "id": 7226682907,
  "lat": 49.1914158,
  "lon": 16.6111296,
  "tags": {
    "amenity": "fast_food",
    "diet:vegetarian": "yes",
    "name": "Taco Bonito",
    "opening_hours": "Mo-Fr 11:00-22:00; Sa,Su 11:00-20:00",
    "wheelchair": "limited"
  }
},
{
  "type": "node",
  "id": 7238278893,
  "lat": 49.1910867,
  "lon": 16.6128889,
  "tags": {
    "amenity": "fast_food",
    "cuisine": "pasta",
    "diet:vegetarian": "yes",
    "name": "Spaghetti Parmigiano",
    "opening_hours": "Mo-Su 09:00-20:00",
    "wheelchair": "limited"
  }
},
{
  "type": "node",
  "id": 7289524345,
  "lat": 49.3598407,
  "lon": 16.6421782,
  "tags": {
    "amenity": "restaurant",
    "diet:vegan": "limited",
    "diet:vegetarian": "yes",
    "email": "jidelnauhoracku@gmail.com",
    "name": "U Horáčků",
    "opening_hours": "Mo-Fr 10:00-15:00",
    "phone": "+420 +516 413 237",
    "website": "https://jidelnauhoracku-cz.webnode.cz/"
  }
},
{
  "type": "node",
  "id": 7315111201,
  "lat": 49.2027056,
  "lon": 16.6138250,
  "tags": {
    "amenity": "fast_food",
    "diet:gluten_free": "yes",
    "diet:vegan": "yes",
    "diet:vegetarian": "yes",
    "email": "info@fabrik.cz",
    "name": "Fabrik food factory",
    "opening_hours": "Mo-Fr 09:00-21:00; Sa,Su 10:00-21:00",
    "payment:maestro": "yes",
    "payment:mastercard": "yes",
    "payment:visa": "yes",
    "payment:visa_debit": "yes",
    "payment:visa_electron": "yes",
    "phone": "+420 777 222 241",
    "website": "https://fabrik.cz/"
  }
},
{
  "type": "node",
  "id": 7723845933,
  "lat": 49.1907374,
  "lon": 16.6126760,
  "tags": {
    "amenity": "fast_food",
    "diet:vegetarian": "yes",
    "name": "Ráj oříšků",
    "opening_hours": "Mo-Fr 08:00-20:00; Sa,Su 08:00-18:00",
    "wheelchair": "yes"
  }
},
{
  "type": "node",
  "id": 7826700275,
  "lat": 49.2204695,
  "lon": 16.5857836,
  "tags": {
    "amenity": "cafe",
    "diet:vegetarian": "yes",
    "name": "Jadro",
    "opening_hours": "Mo-Fr 10:00-20:00; Su 13:00-18:00",
    "website": "https://www.jadrocafe.cz",
    "wheelchair": "no"
  }
},
{
  "type": "way",
  "id": 74059822,
  "nodes": [
    2985858502,
    2985858498,
    2985858500,
    2985858505,
    2985858507,
    2985858506,
    2985858502
  ],
  "tags": {
    "amenity": "fast_food",
    "building": "yes",
    "building:ruian:type": "19",
    "diet:vegetarian": "yes",
    "name": "Circus",
    "opening_hours": "Mo-Fr 07:00-19:00",
    "ref:ruian:building": "42964946",
    "source": "cuzk:ruian"
  }
},
{
  "type": "way",
  "id": 161463676,
  "nodes": [
    1734286819,
    1734286820,
    1734286821,
    3964171664,
    1734286829,
    3964171674,
    3964171676,
    3964171679,
    3964171677,
    1734286844,
    3964171669,
    3964171666,
    1734286824,
    1734286818,
    3964171660,
    1734286816,
    1734286819
  ],
  "tags": {
    "amenity": "fast_food",
    "building": "civic",
    "building:levels": "1",
    "building:ruian:type": "15",
    "cuisine": "asian",
    "diet:vegetarian": "yes",
    "name": "Orient V.",
    "opening_hours": "Mo-Su 08:00-21:00",
    "ref:ruian:building": "30719992",
    "roof:levels": "0",
    "roof:shape": "flat",
    "source": "cuzk:ruian",
    "wheelchair": "limited"
  }
},
{
  "type": "node",
  "id": 2985858498,
  "lat": 48.8526225,
  "lon": 16.0581737
},
{
  "type": "node",
  "id": 2985858500,
  "lat": 48.8526354,
  "lon": 16.0581067
},
{
  "type": "node",
  "id": 2985858502,
  "lat": 48.8526429,
  "lon": 16.0582040
},
{
  "type": "node",
  "id": 2985858505,
  "lat": 48.8526713,
  "lon": 16.0580929
},
{
  "type": "node",
  "id": 2985858506,
  "lat": 48.8526846,
  "lon": 16.0581875
},
{
  "type": "node",
  "id": 2985858507,
  "lat": 48.8526960,
  "lon": 16.0581326
},
{
  "type": "node",
  "id": 1734286816,
  "lat": 49.1902836,
  "lon": 16.6135789
},
{
  "type": "node",
  "id": 1734286818,
  "lat": 49.1902965,
  "lon": 16.6136453
},
{
  "type": "node",
  "id": 1734286819,
  "lat": 49.1902904,
  "lon": 16.6135442
},
{
  "type": "node",
  "id": 1734286820,
  "lat": 49.1903002,
  "lon": 16.6135261
},
{
  "type": "node",
  "id": 1734286821,
  "lat": 49.1903057,
  "lon": 16.6135170
},
{
  "type": "node",
  "id": 1734286824,
  "lat": 49.1903145,
  "lon": 16.6136679
},
{
  "type": "node",
  "id": 1734286829,
  "lat": 49.1903488,
  "lon": 16.6134976
},
{
  "type": "node",
  "id": 1734286844,
  "lat": 49.1904227,
  "lon": 16.6136553
},
{
  "type": "node",
  "id": 3964171660,
  "lat": 49.1902859,
  "lon": 16.6136136
},
{
  "type": "node",
  "id": 3964171664,
  "lat": 49.1903261,
  "lon": 16.6135007
},
{
  "type": "node",
  "id": 3964171666,
  "lat": 49.1903372,
  "lon": 16.6136782
},
{
  "type": "node",
  "id": 3964171669,
  "lat": 49.1903525,
  "lon": 16.6136796
},
{
  "type": "node",
  "id": 3964171674,
  "lat": 49.1903711,
  "lon": 16.6135082
},
{
  "type": "node",
  "id": 3964171676,
  "lat": 49.1903893,
  "lon": 16.6135307
},
{
  "type": "node",
  "id": 3964171677,
  "lat": 49.1903975,
  "lon": 16.6135645
},
{
  "type": "node",
  "id": 3964171679,
  "lat": 49.1904016,
  "lon": 16.6135618
}

  ]
}
